[{"OBJECT_NAME":"FLOCK 4G-2","OBJECT_ID":"2025-009BE","EPOCH":"2026-03-09T15:53:23.273952","MEAN_MOTION":15.2767526,"ECCENTRICITY":0.00031811,"INCLINATION":97.4044,"RA_OF_ASC_NODE":151.2221,"ARG_OF_PERICENTER":329.2677,"MEAN_ANOMALY":30.8376,"EPHEMERIS_TYPE":0,"CLASSIFICATION_TYPE":"U","NORAD_CAT_ID":62661,"ELEMENT_SET_NO":999,"REV_AT_EPOCH":12132,"BSTAR":0.00051068481,"MEAN_MOTION_DOT":0.00013752,"MEAN_MOTION_DDOT":0},{"OBJECT_NAME":"STARLINK-34121","OBJECT_ID":"2025-099K","EPOCH":"2026-03-09T08:19:06.948480","MEAN_MOTION":15.27599454,"ECCENTRICITY":0.00017421,"INCLINATION":42.9973,"RA_OF_ASC_NODE":178.1738,"ARG_OF_PERICENTER":164.0351,"MEAN_ANOMALY":196.0556,"EPHEMERIS_TYPE":0,"CLASSIFICATION_TYPE":"U","NORAD_CAT_ID":63961,"ELEMENT_SET_NO":999,"REV_AT_EPOCH":4728,"BSTAR":0.00094465388,"MEAN_MOTION_DOT":0.0002584,"MEAN_MOTION_DDOT":0}]
